[{"OBJECT_NAME":"STARLINK-1263","OBJECT_ID":"2020-019AX","EPOCH":"2026-03-09T13:19:56.122752","MEAN_MOTION":15.30197423,"ECCENTRICITY":0.0001496,"INCLINATION":53.1609,"RA_OF_ASC_NODE":129.8934,"ARG_OF_PERICENTER":91.1707,"MEAN_ANOMALY":268.9465,"EPHEMERIS_TYPE":0,"CLASSIFICATION_TYPE":"U","NORAD_CAT_ID":45405,"ELEMENT_SET_NO":999,"REV_AT_EPOCH":32995,"BSTAR":-2.7141e-5,"MEAN_MOTION_DOT":-1.163e-5,"MEAN_MOTION_DDOT":0},{"OBJECT_NAME":"JILIN-1 GAOFEN 03D47","OBJECT_ID":"2022-167L","EPOCH":"2026-03-09T22:56:46.924224","MEAN_MOTION":15.31686941,"ECCENTRICITY":0.00089304,"INCLINATION":97.6835,"RA_OF_ASC_NODE":234.6581,"ARG_OF_PERICENTER":110.4031,"MEAN_ANOMALY":249.8169,"EPHEMERIS_TYPE":0,"CLASSIFICATION_TYPE":"U","NORAD_CAT_ID":54692,"ELEMENT_SET_NO":999,"REV_AT_EPOCH":18014,"BSTAR":0.00047294748,"MEAN_MOTION_DOT":0.00014417,"MEAN_MOTION_DDOT":0}]
